start=new Date('2022-01-12T00:00:00.000Z').valueOf();
sats=[{"OBJECT_ID":"2021-021W","OBJECT_TYPE":"PAYLOAD","FILE":"3269987","DECAY_DATE":null,"MEAN_MOTION_DDOT":"0.0000000000000","RCS_SIZE":"LARGE","TLE_LINE1":"1 47880U 21021W   22011.91063982  .00003528  00000-0  25026-3 0  9993","PERIOD":"95.541","EPHEMERIS_TYPE":"0","REV_AT_EPOCH":"4728","NORAD_CAT_ID":"47880","EPOCH":"2022-01-11T21:51:19.280448","LAUNCH_DATE":"2021-03-14","BSTAR":"0.00025026000000","TLE_LINE2":"2 47880  53.0556 255.1769 0001873  57.3491 302.7679 15.07204095 47284","CLASSIFICATION_TYPE":"U","ELEMENT_SET_NO":"999","MEAN_ANOMALY":"302.7679","SITE":"AFETR","CENTER_NAME":"EARTH","INCLINATION":"53.0556","MEAN_ELEMENT_THEORY":"SGP4","ARG_OF_PERICENTER":"57.3491","GP_ID":"193692751","COUNTRY_CODE":"US","MEAN_MOTION_DOT":"0.00003528","REF_FRAME":"TEME","ECCENTRICITY":"0.00018730","SEMIMAJOR_AXIS":"6922.885","TIME_SYSTEM":"UTC","PERIAPSIS":"543.454","OBJECT_NAME":"STARLINK-2337","MEAN_MOTION":"15.07204095","APOAPSIS":"546.047","RA_OF_ASC_NODE":"255.1769"},{"ECCENTRICITY":"0.00021140","REF_FRAME":"TEME","MEAN_MOTION_DOT":"-0.00004459","COUNTRY_CODE":"US","GP_ID":"193693008","MEAN_ELEMENT_THEORY":"SGP4","ARG_OF_PERICENTER":"68.7998","INCLINATION":"53.0603","MEAN_MOTION":"15.06402676","APOAPSIS":"548.669","RA_OF_ASC_NODE":"255.0628","OBJECT_NAME":"STARLINK-2339","PERIAPSIS":"545.741","TIME_SYSTEM":"UTC","SEMIMAJOR_AXIS":"6925.340","EPHEMERIS_TYPE":"0","NORAD_CAT_ID":"47881","REV_AT_EPOCH":"4725","PERIOD":"95.592","MEAN_MOTION_DDOT":"0.0000000000000","DECAY_DATE":null,"TLE_LINE1":"1 47881U 21021X   22011.93513358 -.00004459  00000-0 -28061-3 0  9991","RCS_SIZE":"LARGE","FILE":"3269987","OBJECT_ID":"2021-021X","OBJECT_TYPE":"PAYLOAD","CENTER_NAME":"EARTH","SITE":"AFETR","ELEMENT_SET_NO":"999","CLASSIFICATION_TYPE":"U","MEAN_ANOMALY":"291.3217","BSTAR":"-0.00028061000000","TLE_LINE2":"2 47881  53.0603 255.0628 0002114  68.7998 291.3217 15.06402676 47250","LAUNCH_DATE":"2021-03-14","EPOCH":"2022-01-11T22:26:35.541312"},{"SITE":"AFETR","CENTER_NAME":"EARTH","MEAN_ANOMALY":"289.7927","ELEMENT_SET_NO":"999","CLASSIFICATION_TYPE":"U","TLE_LINE2":"2 47882  53.0546 245.1871 0002148  70.3294 289.7927 15.06395958 47592","BSTAR":"-0.00000390990000","LAUNCH_DATE":"2021-03-14","EPOCH":"2022-01-11T21:50:46.270464","REV_AT_EPOCH":"4759","NORAD_CAT_ID":"47882","EPHEMERIS_TYPE":"0","PERIOD":"95.592","RCS_SIZE":"LARGE","TLE_LINE1":"1 47882U 21021Y   22011.91025776 -.00000340  00000-0 -39099-5 0  9992","DECAY_DATE":null,"MEAN_MOTION_DDOT":"0.0000000000000","FILE":"3269987","OBJECT_TYPE":"PAYLOAD","OBJECT_ID":"2021-021Y","MEAN_MOTION":"15.06395958","APOAPSIS":"548.714","RA_OF_ASC_NODE":"245.1871","PERIAPSIS":"545.738","OBJECT_NAME":"STARLINK-2340","TIME_SYSTEM":"UTC","SEMIMAJOR_AXIS":"6925.361","ECCENTRICITY":"0.00021480","REF_FRAME":"TEME","COUNTRY_CODE":"US","MEAN_MOTION_DOT":"-0.00000340","GP_ID":"193693252","ARG_OF_PERICENTER":"70.3294","MEAN_ELEMENT_THEORY":"SGP4","INCLINATION":"53.0546"},{"CLASSIFICATION_TYPE":"U","ELEMENT_SET_NO":"999","MEAN_ANOMALY":"293.0732","CENTER_NAME":"EARTH","SITE":"AFETR","BSTAR":"0.00008705800000","TLE_LINE2":"2 47883  53.0527 253.9041 0002160  67.0485 293.0732 15.06404715 47401","EPOCH":"2022-01-11T02:03:48.046464","LAUNCH_DATE":"2021-03-14","PERIOD":"95.592","EPHEMERIS_TYPE":"0","REV_AT_EPOCH":"4740","NORAD_CAT_ID":"47883","MEAN_MOTION_DDOT":"0.0000000000000","DECAY_DATE":null,"RCS_SIZE":"MEDIUM","TLE_LINE1":"1 47883U 21021Z   22011.08597276  .00001015  00000-0  87058-4 0  9995","OBJECT_ID":"2021-021Z","OBJECT_TYPE":"PAYLOAD","FILE":"3269657","APOAPSIS":"548.695","MEAN_MOTION":"15.06404715","RA_OF_ASC_NODE":"253.9041","TIME_SYSTEM":"UTC","PERIAPSIS":"545.703","OBJECT_NAME":"STARLINK-2342","SEMIMAJOR_AXIS":"6925.334","REF_FRAME":"TEME","ECCENTRICITY":"0.00021600","COUNTRY_CODE":"US","MEAN_MOTION_DOT":"0.00001015","GP_ID":"193662204","INCLINATION":"53.0527","MEAN_ELEMENT_THEORY":"SGP4","ARG_OF_PERICENTER":"67.0485"},{"CLASSIFICATION_TYPE":"U","ELEMENT_SET_NO":"999","MEAN_ANOMALY":"295.7660","CENTER_NAME":"EARTH","SITE":"AFETR","EPOCH":"2022-01-11T09:36:58.097088","LAUNCH_DATE":"2021-03-14","BSTAR":"-0.00011196000000","TLE_LINE2":"2 47884  53.0554 257.4801 0002227  64.3559 295.7660 15.06391667 47209","MEAN_MOTION_DDOT":"0.0000000000000","DECAY_DATE":null,"TLE_LINE1":"1 47884U 21021AA  22011.40067242 -.00001949  00000-0 -11196-3 0  9994","RCS_SIZE":"LARGE","PERIOD":"95.593","EPHEMERIS_TYPE":"0","NORAD_CAT_ID":"47884","REV_AT_EPOCH":"4720","OBJECT_ID":"2021-021AA","OBJECT_TYPE":"PAYLOAD","FILE":"3269657","APOAPSIS":"548.781","MEAN_MOTION":"15.06391667","RA_OF_ASC_NODE":"257.4801","SEMIMAJOR_AXIS":"6925.374","TIME_SYSTEM":"UTC","OBJECT_NAME":"STARLINK-2343","PERIAPSIS":"545.697","COUNTRY_CODE":"US","MEAN_MOTION_DOT":"-0.00001949","REF_FRAME":"TEME","ECCENTRICITY":"0.00022270","INCLINATION":"53.0554","MEAN_ELEMENT_THEORY":"SGP4","ARG_OF_PERICENTER":"64.3559","GP_ID":"193663455"},{"RCS_SIZE":"LARGE","TLE_LINE1":"1 47885U 21021AB  22011.39468800 -.00001458  00000-0 -78996-4 0  9995","DECAY_DATE":null,"MEAN_MOTION_DDOT":"0.0000000000000","REV_AT_EPOCH":"4729","NORAD_CAT_ID":"47885","EPHEMERIS_TYPE":"0","PERIOD":"95.593","FILE":"3269657","OBJECT_TYPE":"PAYLOAD","OBJECT_ID":"2021-021AB","CENTER_NAME":"EARTH","SITE":"AFETR","MEAN_ANOMALY":"298.5106","ELEMENT_SET_NO":"999","CLASSIFICATION_TYPE":"U","LAUNCH_DATE":"2021-03-14","EPOCH":"2022-01-11T09:28:21.043200","TLE_LINE2":"2 47885  53.0548 262.5019 0002384  61.6123 298.5106 15.06390131 47292","BSTAR":"-0.00007899600000","COUNTRY_CODE":"US","MEAN_MOTION_DOT":"-0.00001458","ECCENTRICITY":"0.00023840","REF_FRAME":"TEME","ARG_OF_PERICENTER":"61.6123","MEAN_ELEMENT_THEORY":"SGP4","INCLINATION":"53.0548","GP_ID":"193663705","APOAPSIS":"548.895","MEAN_MOTION":"15.06390131","RA_OF_ASC_NODE":"262.5019","SEMIMAJOR_AXIS":"6925.379","PERIAPSIS":"545.593","OBJECT_NAME":"STARLINK-2344","TIME_SYSTEM":"UTC"},{"SEMIMAJOR_AXIS":"6925.342","PERIAPSIS":"545.706","OBJECT_NAME":"STARLINK-2345","TIME_SYSTEM":"UTC","MEAN_MOTION":"15.06402153","APOAPSIS":"548.708","RA_OF_ASC_NODE":"252.5093","MEAN_ELEMENT_THEORY":"SGP4","ARG_OF_PERICENTER":"66.7221","INCLINATION":"53.0550","GP_ID":"193661954","MEAN_MOTION_DOT":"-0.00000326","COUNTRY_CODE":"US","ECCENTRICITY":"0.00021680","REF_FRAME":"TEME","LAUNCH_DATE":"2021-03-14","EPOCH":"2022-01-11T09:28:17.702976","BSTAR":"-0.00000299700000","TLE_LINE2":"2 47886  53.0550 252.5093 0002168  66.7221 293.3996 15.06402153 47289","CENTER_NAME":"EARTH","SITE":"AFETR","CLASSIFICATION_TYPE":"U","ELEMENT_SET_NO":"999","MEAN_ANOMALY":"293.3996","FILE":"3269657","OBJECT_ID":"2021-021AC","OBJECT_TYPE":"PAYLOAD","MEAN_MOTION_DDOT":"0.0000000000000","DECAY_DATE":null,"RCS_SIZE":"LARGE","TLE_LINE1":"1 47886U 21021AC  22011.39464934 -.00000326  00000-0 -29970-5 0  9992","EPHEMERIS_TYPE":"0","NORAD_CAT_ID":"47886","REV_AT_EPOCH":"4728","PERIOD":"95.592"},{"OBJECT_TYPE":"PAYLOAD","OBJECT_ID":"2021-021AD","FILE":"3269657","PERIOD":"95.592","NORAD_CAT_ID":"47887","REV_AT_EPOCH":"4716","EPHEMERIS_TYPE":"0","TLE_LINE1":"1 47887U 21021AD  22011.08736295  .00000928  00000-0  81229-4 0  9991","RCS_SIZE":"LARGE","DECAY_DATE":null,"MEAN_MOTION_DDOT":"0.0000000000000","TLE_LINE2":"2 47887  53.0529 258.9002 0002507  59.7848 300.3388 15.06406043 47163","BSTAR":"0.00008122900000","EPOCH":"2022-01-11T02:05:48.158880","LAUNCH_DATE":"2021-03-14","MEAN_ANOMALY":"300.3388","ELEMENT_SET_NO":"999","CLASSIFICATION_TYPE":"U","CENTER_NAME":"EARTH","SITE":"AFETR","GP_ID":"193662704","INCLINATION":"53.0529","ARG_OF_PERICENTER":"59.7848","MEAN_ELEMENT_THEORY":"SGP4","REF_FRAME":"TEME","ECCENTRICITY":"0.00025070","MEAN_MOTION_DOT":"0.00000928","COUNTRY_CODE":"US","TIME_SYSTEM":"UTC","PERIAPSIS":"545.459","OBJECT_NAME":"STARLINK-2346","SEMIMAJOR_AXIS":"6925.330","MEAN_MOTION":"15.06406043","APOAPSIS":"548.931","RA_OF_ASC_NODE":"258.9002"},{"OBJECT_NAME":"STARLINK-2348","PERIAPSIS":"545.814","TIME_SYSTEM":"UTC","SEMIMAJOR_AXIS":"6925.343","RA_OF_ASC_NODE":"245.2078","APOAPSIS":"548.602","MEAN_MOTION":"15.06401692","GP_ID":"193692752","MEAN_ELEMENT_THEORY":"SGP4","ARG_OF_PERICENTER":"64.8065","INCLINATION":"53.0547","ECCENTRICITY":"0.00020130","REF_FRAME":"TEME","COUNTRY_CODE":"US","MEAN_MOTION_DOT":"-0.00000403","BSTAR":"-0.00000814990000","TLE_LINE2":"2 47888  53.0547 245.2078 0002013  64.8065 295.3133 15.06401692 47432","LAUNCH_DATE":"2021-03-14","EPOCH":"2022-01-11T21:45:26.742528","SITE":"AFETR","CENTER_NAME":"EARTH","CLASSIFICATION_TYPE":"U","ELEMENT_SET_NO":"999","MEAN_ANOMALY":"295.3133","FILE":"3269987","OBJECT_ID":"2021-021AE","OBJECT_TYPE":"PAYLOAD","EPHEMERIS_TYPE":"0","REV_AT_EPOCH":"4743","NORAD_CAT_ID":"47888","PERIOD":"95.592","DECAY_DATE":null,"MEAN_MOTION_DDOT":"0.0000000000000","RCS_SIZE":"LARGE","TLE_LINE1":"1 47888U 21021AE  22011.90655952 -.00000403  00000-0 -81499-5 0  9993"},{"SITE":"AFETR","CENTER_NAME":"EARTH","ELEMENT_SET_NO":"999","CLASSIFICATION_TYPE":"U","MEAN_ANOMALY":"289.9193","LAUNCH_DATE":"2021-03-14","EPOCH":"2022-01-11T22:01:22.203840","BSTAR":"0.00010183000000","TLE_LINE2":"2 47889  53.0540 245.1668 0002073  70.2019 289.9193 15.06404081 47481","MEAN_MOTION_DDOT":"0.0000000000000","DECAY_DATE":null,"RCS_SIZE":"LARGE","TLE_LINE1":"1 47889U 21021AF  22011.91761810  .00001235  00000-0  10183-3 0  9998","EPHEMERIS_TYPE":"0","NORAD_CAT_ID":"47889","REV_AT_EPOCH":"4748","PERIOD":"95.592","FILE":"3269987","OBJECT_ID":"2021-021AF","OBJECT_TYPE":"PAYLOAD","APOAPSIS":"548.637","MEAN_MOTION":"15.06404081","RA_OF_ASC_NODE":"245.1668","SEMIMAJOR_AXIS":"6925.336","OBJECT_NAME":"STARLINK-2349","PERIAPSIS":"545.765","TIME_SYSTEM":"UTC","MEAN_MOTION_DOT":"0.00001235","COUNTRY_CODE":"US","ECCENTRICITY":"0.00020730","REF_FRAME":"TEME","MEAN_ELEMENT_THEORY":"SGP4","ARG_OF_PERICENTER":"70.2019","INCLINATION":"53.0540","GP_ID":"193693009"}];
